[{"OBJECT_NAME":"STARLINK-11088 [DTC]","OBJECT_ID":"2024-088B","EPOCH":"2026-01-18T22:27:30.013056","MEAN_MOTION":15.69709068,"ECCENTRICITY":9.74e-5,"INCLINATION":53.1576,"RA_OF_ASC_NODE":211.8496,"ARG_OF_PERICENTER":111.0352,"MEAN_ANOMALY":249.077,"EPHEMERIS_TYPE":0,"CLASSIFICATION_TYPE":"U","NORAD_CAT_ID":59709,"ELEMENT_SET_NO":999,"REV_AT_EPOCH":9845,"BSTAR":-0.00020087166,"MEAN_MOTION_DOT":-0.00024849,"MEAN_MOTION_DDOT":0},{"OBJECT_NAME":"STARLINK-11092 [DTC]","OBJECT_ID":"2024-088C","EPOCH":"2026-01-18T19:17:03.607872","MEAN_MOTION":15.69715579,"ECCENTRICITY":0.00012501,"INCLINATION":53.1581,"RA_OF_ASC_NODE":212.4445,"ARG_OF_PERICENTER":91.676,"MEAN_ANOMALY":268.4401,"EPHEMERIS_TYPE":0,"CLASSIFICATION_TYPE":"U","NORAD_CAT_ID":59710,"ELEMENT_SET_NO":999,"REV_AT_EPOCH":9843,"BSTAR":1.0902108e-5,"MEAN_MOTION_DOT":7.32e-6,"MEAN_MOTION_DDOT":0},{"OBJECT_NAME":"STARLINK-11082 [DTC]","OBJECT_ID":"2024-088D","EPOCH":"2026-01-18T20:41:40.528032","MEAN_MOTION":15.69719592,"ECCENTRICITY":5.916e-5,"INCLINATION":53.1603,"RA_OF_ASC_NODE":212.0966,"ARG_OF_PERICENTER":117.0004,"MEAN_ANOMALY":243.1075,"EPHEMERIS_TYPE":0,"CLASSIFICATION_TYPE":"U","NORAD_CAT_ID":59711,"ELEMENT_SET_NO":999,"REV_AT_EPOCH":9844,"BSTAR":1.3916551e-5,"MEAN_MOTION_DOT":1.099e-5,"MEAN_MOTION_DDOT":0},{"OBJECT_NAME":"STARLINK-11108 [DTC]","OBJECT_ID":"2024-088E","EPOCH":"2026-01-18T20:34:37.337376","MEAN_MOTION":15.69711547,"ECCENTRICITY":9.617e-5,"INCLINATION":53.1577,"RA_OF_ASC_NODE":212.0641,"ARG_OF_PERICENTER":91.3835,"MEAN_ANOMALY":268.7293,"EPHEMERIS_TYPE":0,"CLASSIFICATION_TYPE":"U","NORAD_CAT_ID":59712,"ELEMENT_SET_NO":999,"REV_AT_EPOCH":9844,"BSTAR":1.3857835e-5,"MEAN_MOTION_DOT":1.091e-5,"MEAN_MOTION_DDOT":0},{"OBJECT_NAME":"STARLINK-11100 [DTC]","OBJECT_ID":"2024-088F","EPOCH":"2026-01-18T18:55:52.629312","MEAN_MOTION":15.69708508,"ECCENTRICITY":0.00012063,"INCLINATION":53.1606,"RA_OF_ASC_NODE":212.3456,"ARG_OF_PERICENTER":89.6586,"MEAN_ANOMALY":270.457,"EPHEMERIS_TYPE":0,"CLASSIFICATION_TYPE":"U","NORAD_CAT_ID":59713,"ELEMENT_SET_NO":999,"REV_AT_EPOCH":9843,"BSTAR":3.846598e-6,"MEAN_MOTION_DOT":-1.23e-6,"MEAN_MOTION_DDOT":0},{"OBJECT_NAME":"STARLINK-11094 [DTC]","OBJECT_ID":"2024-088G","EPOCH":"2026-01-18T20:20:30.149952","MEAN_MOTION":15.69705454,"ECCENTRICITY":9.736e-5,"INCLINATION":53.1576,"RA_OF_ASC_NODE":212.0056,"ARG_OF_PERICENTER":93.0992,"MEAN_ANOMALY":267.0137,"EPHEMERIS_TYPE":0,"CLASSIFICATION_TYPE":"U","NORAD_CAT_ID":59714,"ELEMENT_SET_NO":999,"REV_AT_EPOCH":9844,"BSTAR":4.7614082e-5,"MEAN_MOTION_DOT":5.182e-5,"MEAN_MOTION_DDOT":0},{"OBJECT_NAME":"STARLINK-11101 [DTC]","OBJECT_ID":"2024-088H","EPOCH":"2026-01-18T20:06:23.153472","MEAN_MOTION":15.69687441,"ECCENTRICITY":0.00010774,"INCLINATION":53.1597,"RA_OF_ASC_NODE":211.932,"ARG_OF_PERICENTER":56.7388,"MEAN_ANOMALY":303.3733,"EPHEMERIS_TYPE":0,"CLASSIFICATION_TYPE":"U","NORAD_CAT_ID":59715,"ELEMENT_SET_NO":999,"REV_AT_EPOCH":9844,"BSTAR":-4.0645351e-5,"MEAN_MOTION_DOT":-5.504e-5,"MEAN_MOTION_DDOT":0},{"OBJECT_NAME":"STARLINK-11099 [DTC]","OBJECT_ID":"2024-088J","EPOCH":"2026-01-18T18:41:44.767968","MEAN_MOTION":15.6971326,"ECCENTRICITY":8.14e-5,"INCLINATION":53.1585,"RA_OF_ASC_NODE":212.2799,"ARG_OF_PERICENTER":80.3579,"MEAN_ANOMALY":279.7531,"EPHEMERIS_TYPE":0,"CLASSIFICATION_TYPE":"U","NORAD_CAT_ID":59716,"ELEMENT_SET_NO":999,"REV_AT_EPOCH":9843,"BSTAR":1.2622481e-5,"MEAN_MOTION_DOT":9.41e-6,"MEAN_MOTION_DDOT":0},{"OBJECT_NAME":"STARLINK-11084 [DTC]","OBJECT_ID":"2024-088K","EPOCH":"2026-01-18T23:02:40.226784","MEAN_MOTION":15.69709355,"ECCENTRICITY":7.557e-5,"INCLINATION":53.1577,"RA_OF_ASC_NODE":211.2705,"ARG_OF_PERICENTER":130.8037,"MEAN_ANOMALY":229.3047,"EPHEMERIS_TYPE":0,"CLASSIFICATION_TYPE":"U","NORAD_CAT_ID":59717,"ELEMENT_SET_NO":999,"REV_AT_EPOCH":9846,"BSTAR":1.1153826e-5,"MEAN_MOTION_DOT":7.63e-6,"MEAN_MOTION_DDOT":0},{"OBJECT_NAME":"STARLINK-11103 [DTC]","OBJECT_ID":"2024-088L","EPOCH":"2026-01-18T22:55:36.446016","MEAN_MOTION":15.69707802,"ECCENTRICITY":8.366e-5,"INCLINATION":53.1591,"RA_OF_ASC_NODE":211.236,"ARG_OF_PERICENTER":103.8124,"MEAN_ANOMALY":256.2987,"EPHEMERIS_TYPE":0,"CLASSIFICATION_TYPE":"U","NORAD_CAT_ID":59718,"ELEMENT_SET_NO":999,"REV_AT_EPOCH":9846,"BSTAR":-3.57718e-6,"MEAN_MOTION_DOT":-1.021e-5,"MEAN_MOTION_DDOT":0},{"OBJECT_NAME":"STARLINK-11096 [DTC]","OBJECT_ID":"2024-088M","EPOCH":"2026-01-18T22:34:33.658176","MEAN_MOTION":15.69711524,"ECCENTRICITY":0.00011707,"INCLINATION":53.1605,"RA_OF_ASC_NODE":211.8756,"ARG_OF_PERICENTER":84.8728,"MEAN_ANOMALY":275.2424,"EPHEMERIS_TYPE":0,"CLASSIFICATION_TYPE":"U","NORAD_CAT_ID":59719,"ELEMENT_SET_NO":999,"REV_AT_EPOCH":9845,"BSTAR":2.044337e-6,"MEAN_MOTION_DOT":-3.41e-6,"MEAN_MOTION_DDOT":0},{"OBJECT_NAME":"STARLINK-11095 [DTC]","OBJECT_ID":"2024-088N","EPOCH":"2026-01-18T19:45:10.815840","MEAN_MOTION":15.69706817,"ECCENTRICITY":8.018e-5,"INCLINATION":53.1599,"RA_OF_ASC_NODE":211.8317,"ARG_OF_PERICENTER":109.5853,"MEAN_ANOMALY":250.5252,"EPHEMERIS_TYPE":0,"CLASSIFICATION_TYPE":"U","NORAD_CAT_ID":59720,"ELEMENT_SET_NO":999,"REV_AT_EPOCH":9844,"BSTAR":-1.4188617e-5,"MEAN_MOTION_DOT":-2.306e-5,"MEAN_MOTION_DDOT":0},{"OBJECT_NAME":"STARLINK-31834","OBJECT_ID":"2024-088P","EPOCH":"2026-01-18T16:27:18.112320","MEAN_MOTION":15.30194355,"ECCENTRICITY":0.0001773,"INCLINATION":53.1619,"RA_OF_ASC_NODE":12.3625,"ARG_OF_PERICENTER":94.4988,"MEAN_ANOMALY":265.6215,"EPHEMERIS_TYPE":0,"CLASSIFICATION_TYPE":"U","NORAD_CAT_ID":59721,"ELEMENT_SET_NO":999,"REV_AT_EPOCH":9620,"BSTAR":3.3998161e-5,"MEAN_MOTION_DOT":6.47e-6,"MEAN_MOTION_DDOT":0},{"OBJECT_NAME":"STARLINK-31843","OBJECT_ID":"2024-088Q","EPOCH":"2026-01-18T16:42:29.870784","MEAN_MOTION":15.30193029,"ECCENTRICITY":0.00013399,"INCLINATION":53.162,"RA_OF_ASC_NODE":12.4283,"ARG_OF_PERICENTER":88.7626,"MEAN_ANOMALY":271.3528,"EPHEMERIS_TYPE":0,"CLASSIFICATION_TYPE":"U","NORAD_CAT_ID":59722,"ELEMENT_SET_NO":999,"REV_AT_EPOCH":9602,"BSTAR":2.7135846e-5,"MEAN_MOTION_DOT":4.44e-6,"MEAN_MOTION_DDOT":0},{"OBJECT_NAME":"STARLINK-31766","OBJECT_ID":"2024-088R","EPOCH":"2026-01-19T00:02:21.719328","MEAN_MOTION":15.30202138,"ECCENTRICITY":0.000108,"INCLINATION":53.1597,"RA_OF_ASC_NODE":10.7797,"ARG_OF_PERICENTER":94.8269,"MEAN_ANOMALY":265.2855,"EPHEMERIS_TYPE":0,"CLASSIFICATION_TYPE":"U","NORAD_CAT_ID":59723,"ELEMENT_SET_NO":999,"REV_AT_EPOCH":9607,"BSTAR":3.4777312e-5,"MEAN_MOTION_DOT":6.71e-6,"MEAN_MOTION_DDOT":0},{"OBJECT_NAME":"STARLINK-31836","OBJECT_ID":"2024-088S","EPOCH":"2026-01-18T16:18:10.936800","MEAN_MOTION":15.30193921,"ECCENTRICITY":0.00010376,"INCLINATION":53.1613,"RA_OF_ASC_NODE":12.3232,"ARG_OF_PERICENTER":98.7759,"MEAN_ANOMALY":261.3359,"EPHEMERIS_TYPE":0,"CLASSIFICATION_TYPE":"U","NORAD_CAT_ID":59724,"ELEMENT_SET_NO":999,"REV_AT_EPOCH":9602,"BSTAR":2.0222351e-5,"MEAN_MOTION_DOT":2.4e-6,"MEAN_MOTION_DDOT":0},{"OBJECT_NAME":"STARLINK-31820","OBJECT_ID":"2024-088T","EPOCH":"2026-01-18T16:31:51.660768","MEAN_MOTION":15.30192146,"ECCENTRICITY":0.00014061,"INCLINATION":53.161,"RA_OF_ASC_NODE":12.3797,"ARG_OF_PERICENTER":96.6834,"MEAN_ANOMALY":263.4327,"EPHEMERIS_TYPE":0,"CLASSIFICATION_TYPE":"U","NORAD_CAT_ID":59725,"ELEMENT_SET_NO":999,"REV_AT_EPOCH":9602,"BSTAR":3.0698908e-5,"MEAN_MOTION_DOT":5.5e-6,"MEAN_MOTION_DDOT":0},{"OBJECT_NAME":"STARLINK-31642","OBJECT_ID":"2024-088U","EPOCH":"2026-01-18T22:54:08.924544","MEAN_MOTION":15.30195939,"ECCENTRICITY":0.00014662,"INCLINATION":53.1607,"RA_OF_ASC_NODE":11.1929,"ARG_OF_PERICENTER":92.6811,"MEAN_ANOMALY":267.4358,"EPHEMERIS_TYPE":0,"CLASSIFICATION_TYPE":"U","NORAD_CAT_ID":59726,"ELEMENT_SET_NO":999,"REV_AT_EPOCH":9606,"BSTAR":5.158756e-5,"MEAN_MOTION_DOT":1.169e-5,"MEAN_MOTION_DDOT":0},{"OBJECT_NAME":"STARLINK-31827","OBJECT_ID":"2024-088V","EPOCH":"2026-01-18T07:22:44.567328","MEAN_MOTION":15.3019907,"ECCENTRICITY":0.00013215,"INCLINATION":53.161,"RA_OF_ASC_NODE":14.266,"ARG_OF_PERICENTER":90.3842,"MEAN_ANOMALY":269.731,"EPHEMERIS_TYPE":0,"CLASSIFICATION_TYPE":"U","NORAD_CAT_ID":59727,"ELEMENT_SET_NO":999,"REV_AT_EPOCH":9608,"BSTAR":-6.9567301e-5,"MEAN_MOTION_DOT":-2.419e-5,"MEAN_MOTION_DDOT":0},{"OBJECT_NAME":"STARLINK-31472","OBJECT_ID":"2024-090A","EPOCH":"2026-01-18T07:09:20.710368","MEAN_MOTION":15.27519231,"ECCENTRICITY":0.00016983,"INCLINATION":43.0047,"RA_OF_ASC_NODE":108.0712,"ARG_OF_PERICENTER":262.0812,"MEAN_ANOMALY":97.9847,"EPHEMERIS_TYPE":0,"CLASSIFICATION_TYPE":"U","NORAD_CAT_ID":59730,"ELEMENT_SET_NO":999,"REV_AT_EPOCH":9573,"BSTAR":0.00021933796,"MEAN_MOTION_DOT":5.767e-5,"MEAN_MOTION_DDOT":0},{"OBJECT_NAME":"STARLINK-31817","OBJECT_ID":"2024-090B","EPOCH":"2026-01-18T22:24:59.963040","MEAN_MOTION":15.27573257,"ECCENTRICITY":0.00012349,"INCLINATION":43.0014,"RA_OF_ASC_NODE":104.2365,"ARG_OF_PERICENTER":273.8219,"MEAN_ANOMALY":86.2491,"EPHEMERIS_TYPE":0,"CLASSIFICATION_TYPE":"U","NORAD_CAT_ID":59731,"ELEMENT_SET_NO":999,"REV_AT_EPOCH":9583,"BSTAR":-1.9882151e-5,"MEAN_MOTION_DOT":-8.09e-6,"MEAN_MOTION_DDOT":0},{"OBJECT_NAME":"STARLINK-31833","OBJECT_ID":"2024-090D","EPOCH":"2026-01-18T15:20:28.719456","MEAN_MOTION":15.27565693,"ECCENTRICITY":0.00013294,"INCLINATION":43.0023,"RA_OF_ASC_NODE":106.3189,"ARG_OF_PERICENTER":249.3914,"MEAN_ANOMALY":110.6795,"EPHEMERIS_TYPE":0,"CLASSIFICATION_TYPE":"U","NORAD_CAT_ID":59733,"ELEMENT_SET_NO":999,"REV_AT_EPOCH":9578,"BSTAR":-1.6147434e-5,"MEAN_MOTION_DOT":-7.06e-6,"MEAN_MOTION_DDOT":0},{"OBJECT_NAME":"STARLINK-31849","OBJECT_ID":"2024-090E","EPOCH":"2026-01-18T13:31:04.011168","MEAN_MOTION":15.27567751,"ECCENTRICITY":0.00010233,"INCLINATION":43.0011,"RA_OF_ASC_NODE":99.6902,"ARG_OF_PERICENTER":269.6688,"MEAN_ANOMALY":90.4046,"EPHEMERIS_TYPE":0,"CLASSIFICATION_TYPE":"U","NORAD_CAT_ID":59734,"ELEMENT_SET_NO":999,"REV_AT_EPOCH":9585,"BSTAR":-6.5039817e-5,"MEAN_MOTION_DOT":-2.051e-5,"MEAN_MOTION_DDOT":0}]
